{"type": "FeatureCollection", "features": [ {"type": "Feature", "properties": {"norad_id": 58662, "name": "TIANMU-1 21", "group": "weather", "lat": 19.62274618511204, "lon": -69.96579171621099, "alt_km": 469.52583859571223, "timestamp": "2025-12-19T22:41:52.022093+00:00", "meta": {"OBJECT_NAME": "TIANMU-1 21", "OBJECT_ID": "2023-208C", "EPOCH": "2025-12-19T18:51:53.100864", "MEAN_MOTION": 15.31693679, "ECCENTRICITY": 0.0006166, "INCLINATION": 97.438, "RA_OF_ASC_NODE": 107.2042, "ARG_OF_PERICENTER": 230.5202, "MEAN_ANOMALY": 129.5494, "EPHEMERIS_TYPE": 0, "CLASSIFICATION_TYPE": "U", "NORAD_CAT_ID": 58662, "ELEMENT_SET_NO": 999, "REV_AT_EPOCH": 11007, "BSTAR": 0.00025839, "MEAN_MOTION_DOT": 7.833e-05, "MEAN_MOTION_DDOT": 0}, "tle": {"line1": "1 58662U 23208C   25353.78603126  .00007833  00000+0  25839-3 0  9993", "line2": "2 58662  97.4380 107.2042 0006166 230.5202 129.5494 15.31693679110072"}}, "geometry": {"type": "Point", "coordinates": [-69.96579171621099, 19.62274618511204]}}, {"type": "Feature", "properties": {"norad_id": 58663, "name": "TIANMU-1 22", "group": "weather", "lat": -20.144188418749863, "lon": 107.7721211677013, "alt_km": 487.9477394302794, "timestamp": "2025-12-19T22:41:52.022109+00:00", "meta": {"OBJECT_NAME": "TIANMU-1 22", "OBJECT_ID": "2023-208D", "EPOCH": "2025-12-19T18:04:14.181024", "MEAN_MOTION": 15.27716404, "ECCENTRICITY": 0.0002733, "INCLINATION": 97.4389, "RA_OF_ASC_NODE": 104.8326, "ARG_OF_PERICENTER": 249.9332, "MEAN_ANOMALY": 110.1614, "EPHEMERIS_TYPE": 0, "CLASSIFICATION_TYPE": "U", "NORAD_CAT_ID": 58663, "ELEMENT_SET_NO": 999, "REV_AT_EPOCH": 10990, "BSTAR": 0.00022216, "MEAN_MOTION_DOT": 5.942e-05, "MEAN_MOTION_DDOT": 0}, "tle": {"line1": "1 58663U 23208D   25353.75294191  .00005942  00000+0  22216-3 0  9994", "line2": "2 58663  97.4389 104.8326 0002733 249.9332 110.1614 15.27716404109901"}}, "geometry": {"type": "Point", "coordinates": [107.7721211677013, -20.144188418749863]}}, {"type": "Feature", "properties": {"norad_id": 58700, "name": "TIANMU-1 15", "group": "weather", "lat": 26.026802961588896, "lon": 171.7183123446349, "alt_km": 493.9293361440523, "timestamp": "2025-12-19T22:41:52.022128+00:00", "meta": {"OBJECT_NAME": "TIANMU-1 15", "OBJECT_ID": "2024-004A", "EPOCH": "2025-12-19T17:51:25.081056", "MEAN_MOTION": 15.24493486, "ECCENTRICITY": 0.0005942, "INCLINATION": 97.4621, "RA_OF_ASC_NODE": 175.1871, "ARG_OF_PERICENTER": 260.4937, "MEAN_ANOMALY": 99.5629, "EPHEMERIS_TYPE": 0, "CLASSIFICATION_TYPE": "U", "NORAD_CAT_ID": 58700, "ELEMENT_SET_NO": 999, "REV_AT_EPOCH": 10841, "BSTAR": 0.00020169, "MEAN_MOTION_DOT": 4.887e-05, "MEAN_MOTION_DDOT": 0}, "tle": {"line1": "1 58700U 24004A   25353.74404029  .00004887  00000+0  20169-3 0  9995", "line2": "2 58700  97.4621 175.1871 0005942 260.4937  99.5629 15.24493486108412"}}, "geometry": {"type": "Point", "coordinates": [171.7183123446349, 26.026802961588896]}}, {"type": "Feature", "properties": {"norad_id": 58701, "name": "TIANMU-1 16", "group": "weather", "lat": 70.06724107956306, "lon": 15.940776515672141, "alt_km": 488.1369140036559, "timestamp": "2025-12-19T22:41:52.022144+00:00", "meta": {"OBJECT_NAME": "TIANMU-1 16", "OBJECT_ID": "2024-004B", "EPOCH": "2025-12-19T19:04:21.711936", "MEAN_MOTION": 15.24521328, "ECCENTRICITY": 0.0004311, "INCLINATION": 97.456, "RA_OF_ASC_NODE": 174.6205, "ARG_OF_PERICENTER": 264.0343, "MEAN_ANOMALY": 96.0403, "EPHEMERIS_TYPE": 0, "CLASSIFICATION_TYPE": "U", "NORAD_CAT_ID": 58701, "ELEMENT_SET_NO": 999, "REV_AT_EPOCH": 10842, "BSTAR": 0.00020897, "MEAN_MOTION_DOT": 5.069e-05, "MEAN_MOTION_DDOT": 0}, "tle": {"line1": "1 58701U 24004B   25353.79469574  .00005069  00000+0  20897-3 0  9998", "line2": "2 58701  97.4560 174.6205 0004311 264.0343  96.0403 15.24521328108420"}}, "geometry": {"type": "Point", "coordinates": [15.940776515672141, 70.06724107956306]}}, {"type": "Feature", "properties": {"norad_id": 58702, "name": "TIANMU-1 17", "group": "weather", "lat": -14.117857079424383, "lon": -6.703962547059513, "alt_km": 496.0545572424753, "timestamp": "2025-12-19T22:41:52.022163+00:00", "meta": {"OBJECT_NAME": "TIANMU-1 17", "OBJECT_ID": "2024-004C", "EPOCH": "2025-12-19T18:41:53.300832", "MEAN_MOTION": 15.24565025, "ECCENTRICITY": 0.0003502, "INCLINATION": 97.4594, "RA_OF_ASC_NODE": 175.0186, "ARG_OF_PERICENTER": 266.265, "MEAN_ANOMALY": 93.8187, "EPHEMERIS_TYPE": 0, "CLASSIFICATION_TYPE": "U", "NORAD_CAT_ID": 58702, "ELEMENT_SET_NO": 999, "REV_AT_EPOCH": 10841, "BSTAR": 0.00020528, "MEAN_MOTION_DOT": 4.984e-05, "MEAN_MOTION_DDOT": 0}, "tle": {"line1": "1 58702U 24004C   25353.77908913  .00004984  00000+0  20528-3 0  9998", "line2": "2 58702  97.4594 175.0186 0003502 266.2650  93.8187 15.24565025108412"}}, "geometry": {"type": "Point", "coordinates": [-6.703962547059513, -14.117857079424383]}}, {"type": "Feature", "properties": {"norad_id": 58703, "name": "TIANMU-1 18", "group": "weather", "lat": -73.02335482321537, "lon": -159.19665074664604, "alt_km": 497.6286417151532, "timestamp": "2025-12-19T22:41:52.022179+00:00", "meta": {"OBJECT_NAME": "TIANMU-1 18", "OBJECT_ID": "2024-004D", "EPOCH": "2025-12-19T18:17:57.312096", "MEAN_MOTION": 15.24549965, "ECCENTRICITY": 0.0002862, "INCLINATION": 97.4611, "RA_OF_ASC_NODE": 175.1988, "ARG_OF_PERICENTER": 264.4335, "MEAN_ANOMALY": 95.6576, "EPHEMERIS_TYPE": 0, "CLASSIFICATION_TYPE": "U", "NORAD_CAT_ID": 58703, "ELEMENT_SET_NO": 999, "REV_AT_EPOCH": 10841, "BSTAR": 0.00018871, "MEAN_MOTION_DOT": 4.574e-05, "MEAN_MOTION_DDOT": 0}, "tle": {"line1": "1 58703U 24004D   25353.76246889  .00004574  00000+0  18871-3 0  9998", "line2": "2 58703  97.4611 175.1988 0002862 264.4335  95.6576 15.24549965108419"}}, "geometry": {"type": "Point", "coordinates": [-159.19665074664604, -73.02335482321537]}}, {"type": "Feature", "properties": {"norad_id": 58990, "name": "INSAT-3DS", "group": "weather", "lat": 0.04079712588193477, "lon": 151.33488010419387, "alt_km": 35788.25535401421, "timestamp": "2025-12-19T22:41:52.022198+00:00", "meta": {"OBJECT_NAME": "INSAT-3DS", "OBJECT_ID": "2024-033A", "EPOCH": "2025-12-18T15:23:52.092960", "MEAN_MOTION": 1.00272396, "ECCENTRICITY": 0.00010988, "INCLINATION": 0.0507, "RA_OF_ASC_NODE": 110.1825, "ARG_OF_PERICENTER": 160.7703, "MEAN_ANOMALY": 129.6153, "EPHEMERIS_TYPE": 0, "CLASSIFICATION_TYPE": "U", "NORAD_CAT_ID": 58990, "ELEMENT_SET_NO": 999, "REV_AT_EPOCH": 4525, "BSTAR": 0, "MEAN_MOTION_DOT": -1.31e-06, "MEAN_MOTION_DDOT": 0}, "tle": {"line1": "1 58990U 24033A   25352.64157515 -.00000131  00000+0  00000+0 0  9998", "line2": "2 58990   0.0507 110.1825 0001098 160.7703 129.6153  1.00272396 45258"}}, "geometry": {"type": "Point", "coordinates": [151.33488010419387, 0.04079712588193477]}}, {"type": "Feature", "properties": {"norad_id": 59051, "name": "METEOR-M2 4", "group": "weather", "lat": -24.205366762249508, "lon": -45.32157685871633, "alt_km": 817.9222278810221, "timestamp": "2025-12-19T22:41:52.022215+00:00", "meta": {"OBJECT_NAME": "METEOR-M2 4", "OBJECT_ID": "2024-039A", "EPOCH": "2025-12-19T19:26:09.953952", "MEAN_MOTION": 14.22402303, "ECCENTRICITY": 0.000666, "INCLINATION": 98.6776, "RA_OF_ASC_NODE": 310.6081, "ARG_OF_PERICENTER": 337.7929, "MEAN_ANOMALY": 22.2959, "EPHEMERIS_TYPE": 0, "CLASSIFICATION_TYPE": "U", "NORAD_CAT_ID": 59051, "ELEMENT_SET_NO": 999, "REV_AT_EPOCH": 9376, "BSTAR": 2.0538e-05, "MEAN_MOTION_DOT": 2e-08, "MEAN_MOTION_DDOT": 0}, "tle": {"line1": "1 59051U 24039A   25353.80983743  .00000002  00000+0  20538-4 0  9991", "line2": "2 59051  98.6776 310.6081 0006660 337.7929  22.2959 14.22402303 93767"}}, "geometry": {"type": "Point", "coordinates": [-45.32157685871633, -24.205366762249508]}}, {"type": "Feature", "properties": {"norad_id": 60133, "name": "GOES 19", "group": "weather", "lat": 0.001460343486155248, "lon": -5.934892439899033, "alt_km": 35782.57713843756, "timestamp": "2025-12-19T22:41:52.022233+00:00", "meta": {"OBJECT_NAME": "GOES 19", "OBJECT_ID": "2024-119A", "EPOCH": "2025-12-19T10:38:46.804128", "MEAN_MOTION": 1.00271901, "ECCENTRICITY": 0.0001077, "INCLINATION": 0.0077, "RA_OF_ASC_NODE": 262.8367, "ARG_OF_PERICENTER": 52.3942, "MEAN_ANOMALY": 217.5699, "EPHEMERIS_TYPE": 0, "CLASSIFICATION_TYPE": "U", "NORAD_CAT_ID": 60133, "ELEMENT_SET_NO": 999, "REV_AT_EPOCH": 516, "BSTAR": 0, "MEAN_MOTION_DOT": -2.24e-06, "MEAN_MOTION_DDOT": 0}, "tle": {"line1": "1 60133U 24119A   25353.44359727 -.00000224  00000+0  00000+0 0  9996", "line2": "2 60133   0.0077 262.8367 0001077  52.3942 217.5699  1.00271901  5165"}}, "geometry": {"type": "Point", "coordinates": [-5.934892439899033, 0.001460343486155248]}}, {"type": "Feature", "properties": {"norad_id": 65815, "name": "FENGYUN 3H", "group": "weather", "lat": 29.68479894792405, "lon": 118.36334332954715, "alt_km": 823.7700520516573, "timestamp": "2025-12-19T22:41:52.022253+00:00", "meta": {"OBJECT_NAME": "FENGYUN 3H", "OBJECT_ID": "2025-219A", "EPOCH": "2025-12-19T18:36:43.442784", "MEAN_MOTION": 14.19906451, "ECCENTRICITY": 7.19e-05, "INCLINATION": 98.6593, "RA_OF_ASC_NODE": 293.2133, "ARG_OF_PERICENTER": 104.6293, "MEAN_ANOMALY": 255.4963, "EPHEMERIS_TYPE": 0, "CLASSIFICATION_TYPE": "U", "NORAD_CAT_ID": 65815, "ELEMENT_SET_NO": 999, "REV_AT_EPOCH": 1192, "BSTAR": 4.0428e-05, "MEAN_MOTION_DOT": 4.3e-07, "MEAN_MOTION_DDOT": 0}, "tle": {"line1": "1 65815U 25219A   25353.77550281  .00000043  00000+0  40428-4 0  9995", "line2": "2 65815  98.6593 293.2133 0000719 104.6293 255.4963 14.19906451 11929"}}, "geometry": {"type": "Point", "coordinates": [118.36334332954715, 29.68479894792405]}}]}